{
  "type": "FeatureCollection",
  "features": [
    {
      "type": "Feature",
      "properties": {
        "norad_id": 66425,
        "name": "STARLINK-35555",
        "group": "last-30-days",
        "lat": 42.219958453392586,
        "lon": 147.9108501103736,
        "alt_km": 438.1611959839074,
        "timestamp": "2025-12-08T17:43:03.631042+00:00",
        "meta_object_name": "STARLINK-35555",
        "meta_object_id": "2025-259D",
        "meta_epoch": "2025-12-08T06:00:02.999808",
        "meta_mean_motion": 15.40646816,
        "meta_eccentricity": 0.00012826,
        "meta_inclination": 43.0004,
        "meta_ra_of_asc_node": 73.8887,
        "meta_arg_of_pericenter": 264.6153,
        "meta_mean_anomaly": 344.6847,
        "meta_ephemeris_type": 0,
        "meta_classification_type": "U",
        "meta_norad_cat_id": 66425,
        "meta_element_set_no": 999,
        "meta_rev_at_epoch": 555,
        "meta_bstar": 0.0015898466,
        "meta_mean_motion_dot": 0.00066572,
        "meta_mean_motion_ddot": 0,
        "tle_line1": "1 66425U 25259D   25342.25003472  .00066572  00000+0  15898-2 0  9993",
        "tle_line2": "2 66425  43.0004  73.8887 0001282 264.6153 344.6847 15.40646816  5559"
      },
      "geometry": {
        "type": "Point",
        "coordinates": [
          147.9108501103736,
          42.219958453392586
        ]
      }
    },
    {
      "type": "Feature",
      "properties": {
        "norad_id": 66426,
        "name": "STARLINK-35589",
        "group": "last-30-days",
        "lat": 42.919486202346015,
        "lon": 164.78061093967503,
        "alt_km": 438.0396934744913,
        "timestamp": "2025-12-08T17:43:03.631053+00:00",
        "meta_object_name": "STARLINK-35589",
        "meta_object_id": "2025-259E",
        "meta_epoch": "2025-12-08T06:00:02.999808",
        "meta_mean_motion": 15.40645521,
        "meta_eccentricity": 0.00013167,
        "meta_inclination": 43.0005,
        "meta_ra_of_asc_node": 73.8599,
        "meta_arg_of_pericenter": 254.389,
        "meta_mean_anomaly": 7.3401,
        "meta_ephemeris_type": 0,
        "meta_classification_type": "U",
        "meta_norad_cat_id": 66426,
        "meta_element_set_no": 999,
        "meta_rev_at_epoch": 555,
        "meta_bstar": 0.0017440527,
        "meta_mean_motion_dot": 0.00073118,
        "meta_mean_motion_ddot": 0,
        "tle_line1": "1 66426U 25259E   25342.25003472  .00073118  00000+0  17441-2 0  9994",
        "tle_line2": "2 66426  43.0005  73.8599 0001316 254.3890   7.3401 15.40645521  5554"
      },
      "geometry": {
        "type": "Point",
        "coordinates": [
          164.78061093967503,
          42.919486202346015
        ]
      }
    },
    {
      "type": "Feature",
      "properties": {
        "norad_id": 66427,
        "name": "STARLINK-35611",
        "group": "last-30-days",
        "lat": 41.13825522898194,
        "lon": -178.60383810712048,
        "alt_km": 438.34503404500447,
        "timestamp": "2025-12-08T17:43:03.631064+00:00",
        "meta_object_name": "STARLINK-35611",
        "meta_object_id": "2025-259F",
        "meta_epoch": "2025-12-08T06:00:02.999808",
        "meta_mean_motion": 15.40654524,
        "meta_eccentricity": 0.00013526,
        "meta_inclination": 43.0006,
        "meta_ra_of_asc_node": 73.8284,
        "meta_arg_of_pericenter": 284.2186,
        "meta_mean_anomaly": 349.9468,
        "meta_ephemeris_type": 0,
        "meta_classification_type": "U",
        "meta_norad_cat_id": 66427,
        "meta_element_set_no": 999,
        "meta_rev_at_epoch": 555,
        "meta_bstar": 0.0017003284,
        "meta_mean_motion_dot": 0.00071282,
        "meta_mean_motion_ddot": 0,
        "tle_line1": "1 66427U 25259F   25342.25003472  .00071282  00000+0  17003-2 0  9999",
        "tle_line2": "2 66427  43.0006  73.8284 0001352 284.2186 349.9468 15.40654524  5558"
      },
      "geometry": {
        "type": "Point",
        "coordinates": [
          -178.60383810712048,
          41.13825522898194
        ]
      }
    },
    {
      "type": "Feature",
      "properties": {
        "norad_id": 66428,
        "name": "STARLINK-35610",
        "group": "last-30-days",
        "lat": 37.14730094176647,
        "lon": -163.40285556055855,
        "alt_km": 438.97815696455564,
        "timestamp": "2025-12-08T17:43:03.631077+00:00",
        "meta_object_name": "STARLINK-35610",
        "meta_object_id": "2025-259G",
        "meta_epoch": "2025-12-08T06:00:02.999808",
        "meta_mean_motion": 15.40718817,
        "meta_eccentricity": 0.00017554,
        "meta_inclination": 43.0009,
        "meta_ra_of_asc_node": 73.7983,
        "meta_arg_of_pericenter": 259.7564,
        "meta_mean_anomaly": 26.7791,
        "meta_ephemeris_type": 0,
        "meta_classification_type": "U",
        "meta_norad_cat_id": 66428,
        "meta_element_set_no": 999,
        "meta_rev_at_epoch": 555,
        "meta_bstar": 0.00061951863,
        "meta_mean_motion_dot": 0.00025679,
        "meta_mean_motion_ddot": 0,
        "tle_line1": "1 66428U 25259G   25342.25003472  .00025679  00000+0  61952-3 0  9992",
        "tle_line2": "2 66428  43.0009  73.7983 0001755 259.7564  26.7791 15.40718817  5556"
      },
      "geometry": {
        "type": "Point",
        "coordinates": [
          -163.40285556055855,
          37.14730094176647
        ]
      }
    },
    {
      "type": "Feature",
      "properties": {
        "norad_id": 66429,
        "name": "STARLINK-35533",
        "group": "last-30-days",
        "lat": 31.430241451612456,
        "lon": -150.0268853196201,
        "alt_km": 439.69696552589176,
        "timestamp": "2025-12-08T17:43:03.631088+00:00",
        "meta_object_name": "STARLINK-35533",
        "meta_object_id": "2025-259H",
        "meta_epoch": "2025-12-08T06:00:02.999808",
        "meta_mean_motion": 15.40648096,
        "meta_eccentricity": 0.00013079,
        "meta_inclination": 43.0009,
        "meta_ra_of_asc_node": 73.7672,
        "meta_arg_of_pericenter": 273.2711,
        "meta_mean_anomaly": 25.7724,
        "meta_ephemeris_type": 0,
        "meta_classification_type": "U",
        "meta_norad_cat_id": 66429,
        "meta_element_set_no": 999,
        "meta_rev_at_epoch": 555,
        "meta_bstar": 0.0019279848,
        "meta_mean_motion_dot": 0.00080952,
        "meta_mean_motion_ddot": 0,
        "tle_line1": "1 66429U 25259H   25342.25003472  .00080952  00000+0  19280-2 0  9994",
        "tle_line2": "2 66429  43.0009  73.7672 0001307 273.2711  25.7724 15.40648096  5556"
      },
      "geometry": {
        "type": "Point",
        "coordinates": [
          -150.0268853196201,
          31.430241451612456
        ]
      }
    },
    {
      "type": "Feature",
      "properties": {
        "norad_id": 66430,
        "name": "STARLINK-35470",
        "group": "last-30-days",
        "lat": 24.479763283878683,
        "lon": -138.32360468567066,
        "alt_km": 440.82215226950757,
        "timestamp": "2025-12-08T17:43:03.631099+00:00",
        "meta_object_name": "STARLINK-35470",
        "meta_object_id": "2025-259J",
        "meta_epoch": "2025-12-08T06:00:02.999808",
        "meta_mean_motion": 15.40654104,
        "meta_eccentricity": 0.00018007,
        "meta_inclination": 43.0008,
        "meta_ra_of_asc_node": 73.7378,
        "meta_arg_of_pericenter": 273.1729,
        "meta_mean_anomaly": 38.2933,
        "meta_ephemeris_type": 0,
        "meta_classification_type": "U",
        "meta_norad_cat_id": 66430,
        "meta_element_set_no": 999,
        "meta_rev_at_epoch": 555,
        "meta_bstar": 0.002649043,
        "meta_mean_motion_dot": 0.00111819,
        "meta_mean_motion_ddot": 0,
        "tle_line1": "1 66430U 25259J   25342.25003472  .00111819  00000+0  26490-2 0  9994",
        "tle_line2": "2 66430  43.0008  73.7378 0001800 273.1729  38.2933 15.40654104  5554"
      },
      "geometry": {
        "type": "Point",
        "coordinates": [
          -138.32360468567066,
          24.479763283878683
        ]
      }
    },
    {
      "type": "Feature",
      "properties": {
        "norad_id": 66431,
        "name": "STARLINK-35439",
        "group": "last-30-days",
        "lat": 16.7378458618754,
        "lon": -127.93484195215981,
        "alt_km": 441.37321015666566,
        "timestamp": "2025-12-08T17:43:03.631109+00:00",
        "meta_object_name": "STARLINK-35439",
        "meta_object_id": "2025-259K",
        "meta_epoch": "2025-12-08T06:00:02.999808",
        "meta_mean_motion": 15.40659063,
        "meta_eccentricity": 0.00011571,
        "meta_inclination": 43.001,
        "meta_ra_of_asc_node": 73.7064,
        "meta_arg_of_pericenter": 254.9652,
        "meta_mean_anomaly": 68.9221,
        "meta_ephemeris_type": 0,
        "meta_classification_type": "U",
        "meta_norad_cat_id": 66431,
        "meta_element_set_no": 999,
        "meta_rev_at_epoch": 555,
        "meta_bstar": 0.0026719906,
        "meta_mean_motion_dot": 0.00112823,
        "meta_mean_motion_ddot": 0,
        "tle_line1": "1 66431U 25259K   25342.25003472  .00112823  00000+0  26720-2 0  9997",
        "tle_line2": "2 66431  43.0010  73.7064 0001157 254.9652  68.9221 15.40659063  5556"
      },
      "geometry": {
        "type": "Point",
        "coordinates": [
          -127.93484195215981,
          16.7378458618754
        ]
      }
    }
  ]
}